#dP2022  5 19  0  0  0.00000000      96 __u+U ITR00 EXT  IAC
## 2210 345600.00000000   900.00000000 59718 0.0000000000000
+  116   C06C07C08C09C10C11C12C13C14C16C19C20C21C22C23C24C25
+        C26C27C28C29C30C32C33C34C35C36C37C38C39C40C41C42C43
+        C44C45C46E02E03E04E05E07E08E09E10E11E12E13E14E15E18
+        E19E21E24E25E26E27E30E31E33E34E36G01G02G03G04G05G06
+        G07G08G09G10G11G12G13G14G15G16G17G18G19G20G21G22G23
+        G24G25G26G27G28G29G30G31G32J02J03R01R02R03R04R05R07
+        R08R09R11R12R13R14R15R17R18R19R20R21R22R24  0  0  0
++        10  9 11 10 10  9  9  9  9  9  9  8  8  8 10 10 10
++         9  9 10  8  8  9  8  7 10 10  7 10 10 10  9  8 10
++         7  7  9  8  7  8  7  8  7  6 10  7  9  7  8  8  7
++         8  7  8  9  8  7  9  8  8  8  8  8  9  7  7  8  7
++         8  6  7  7  8  9  8  8  9  9  7  9  7  7  8  7  9
++         8  8  9  8  8  7  8  7  8 11 10 10  9  8  7  9  8
++         9  8 10  8  9  7  8  8  7  9  9  9  8  8  0  0  0
%c M  cc GPS ccc cccc cccc cccc cccc ccccc ccccc ccccc ccccc
%c cc cc ccc ccc cccc cccc cccc cccc ccccc ccccc ccccc ccccc
%f  0.0000000  0.000000000  0.00000000000  0.000000000000000
%f  0.0000000  0.000000000  0.00000000000  0.000000000000000
%i    0    0    0    0      0      0      0      0         0
%i    0    0    0    0      0      0      0      0         0
/* IAC                                ULTRA-RAPID PREDICTION
/* S/V CLOCKS ARE ALIGNED TO GNSS TIME                      
/* G:C1WC2W R:C1PC2P E:C1XC5X C:C2IC6I J:C1CC2S             
/* PCV:IGS14_2196 OL/AL:FES2004  NONE     YN ORB:CoN CLK:CoN
*  2022 05 19 21 30  0.00000000
PC06 -16978.326050  28117.583537  26348.768055     17.847083
PC07  -7969.075478  40368.529140   9600.222909   -188.061466
PC08  -1417.143312  23329.552045 -35067.304270    321.320972
PC09  -8318.331942  27183.414786  31343.459437   -803.100227
PC10  -2019.266941  42311.668148   2774.957221    131.422417
PC11  16402.566851 -17869.087921  13830.611981    362.465000
PC12  25744.732061 -10246.989200  -3235.046198   -613.516059
PC13   5875.692303  27222.368874 -31432.301461    -28.044111
PC14   7786.007365 -25004.498668   9575.315293    478.807332
PC16 -20135.677169  27751.268138  24548.444330    132.896510
PC19  -1481.466414  27878.922798   -265.429238    868.319040
PC20 -11860.408105  19627.314202 -15906.007053   -921.843547
PC21  15786.880786   1100.767595  23007.371907   -321.890955
PC22  10136.213990  20389.268937  16162.127380   -969.154598
PC23 -19573.012220 -18660.903395  -6879.640309   -930.300591
PC24  16146.598888  -7811.194440 -21380.277916   -966.615790
PC25  -3939.220102 -19178.746604 -19897.954805   -734.244648
PC26  24883.080501   6068.858885 -11048.924633    735.508792
PC27 -25189.806449   3651.605137  11397.589817    725.789250
PC28 -13700.087093 -10250.359158  22042.709521     68.693399
PC29  -5775.968948  18798.097718 -19809.389827    556.914124
PC30 -22113.778766  16169.510621  -5264.240732    498.734055
PC32 -15787.431726   -984.152640 -22969.001275   -963.726620
PC33   1411.122105 -27855.723963    402.554079   -966.047548
PC34  21602.635772 -16564.551761   6183.933149   -399.827883
PC35  13171.212415  10521.145272 -22257.956353    281.664124
PC36   2914.281954  19103.142757  20156.519206   -964.582874
PC37 -24920.175672  -7590.658432  10047.347524   -910.553033
PC38 -10098.436790  21077.236097 -35063.501181    233.321190
PC39 -24532.516849  28271.200181  19275.247449     34.985508
PC40 -13096.418079  37864.866858  13400.472903    270.436370
PC41  -9957.395604 -20728.486716 -15749.421075   -966.219391
PC42  12367.320290 -18670.876522  16682.510141   -970.230356
PC43   6573.191048 -18986.935249  19362.180718   -923.136523
PC44  25056.901326  -4311.444429 -11559.211519    664.988479
PC45  19771.479536  18523.144221   6650.097331    761.361985
PC46 -14858.301895   8878.775680  21899.233304   -333.474389
PE02  14553.558471  -8067.039701 -24483.194878    300.231095
PE03  20711.641001 -17981.729165  11117.090637   -559.981118
PE04 -10960.933479  26577.065592   7068.284392  -1031.548609
PE05  18463.570342   1355.680050  23105.005818   -180.081298
PE07  -5511.609167 -19601.445012 -21468.061436   -670.147770
PE08  10723.092358 -26590.965500  -7320.402212   -531.952595
PE09   5555.180146  19457.335898  21618.980272   -524.020706
PE10   3860.008527  16015.878496 -24604.179205   -514.095761
PE11  15441.262008  14183.690124 -20916.738997   3619.548027
PE12  -7726.113784  15368.625797 -24092.477997   4605.497508
PE13 -14741.575915 -14283.687361  21319.953009    428.780565
PE14 -19280.217611  23277.872934  -1834.338840  -1832.750931
PE15   7894.852195 -15277.124512  24093.615584    744.647386
PE18  21695.466906 -12894.744472  -8281.274562  -1429.407220
PE19 -21112.102993  16009.555694 -13182.967384  -4945.138997
PE21 -20107.511125 -11717.596027  18290.212109   -735.159074
PE24  13599.600473  26278.103120   -104.373845   -624.060484
PE25  20108.005010  11983.355446 -18110.710821   -574.533011
PE26 -28815.525067  -4449.117062   5093.015510  -1163.922669
PE27 -14382.190538 -25847.141123   1234.758675   -302.588379
PE30    673.449860 -24182.518697 -17075.173137   -523.839560
PE31    234.219657  24638.619888  16407.581190   -496.893868
PE33 -25749.206753   7261.545865 -12654.380320   -456.476359
PE34  25632.522850  -7408.345776  12803.879951   -517.889900
PE36  28562.986210   4914.938061  -6052.095424   -376.015229
PG01  17018.895374  13532.018652 -15794.370159    359.368653
PG02   6028.843577 -14725.053094  21939.863605   -653.214319
PG03  12918.855642  22471.603658   5959.123792   -250.140265
PG04   7502.990512  14017.133386  21272.879729   -165.664339
PG05  -4200.459355 -24689.632804   8450.890981    -82.449997
PG06  20771.497269  -6755.239450  15231.063522    309.809656
PG07  26110.426090   5917.496035   2204.600470    322.161445
PG08    -34.692397  19860.395451 -17500.606912    -68.670844
PG09  15868.441987   3762.667665  20903.178823   -335.449643
PG10 -14529.773992   3539.893145 -21815.774040   -420.913264
PG11   7105.950577 -13793.703730  21549.321120    -22.973758
PG12  -8983.011996 -24959.806298   1989.312308   -218.022146
PG13  10117.028139 -21186.707755 -12400.441678    314.567630
PG14  15422.732503  -2148.862725 -21525.104144   -108.990607
PG15  -3405.699386 -19682.589558 -17771.233309    -59.948870
PG16  -2189.526168  23096.937042  12226.236114   -502.279629
PG17  20908.198669 -11858.631575 -10920.573992    614.648484
PG18 -25786.602528  -6217.409817   2246.370139    165.656396
PG19  20554.082002 -16080.357955  -4548.944483    159.499844
PG20   2877.526117 -20088.684509  17254.870099    514.608647
PG21   7772.060282  14774.160050 -20174.017829    161.143861
PG22 -18845.729060  18512.419440  -1108.585672    261.832998
PG23 -17196.357309  -8129.356817 -18590.967078    -22.945046
PG24 -13635.174752 -14494.578228 -18079.928340    238.037818
PG25 -16467.860869 -15624.945397  13720.053237    326.803645
PG26  -8786.098149  15469.171385  19544.217174    206.748627
PG27 -10979.855325  22551.944491  -8311.872258    205.397392
PG28  11269.101615 -11897.053179 -20442.309605    354.947561
PG29 -15007.122753  -4907.699398  21316.105659   -515.386573
PG30  25600.076297   -992.469085  -7407.213204   -528.508971
PG31 -19317.371175   8234.365059  16403.737100   -178.306458
PG32 -20037.479329  14335.595329  -9520.750581   -130.940607
PJ02 -24798.677709  23995.926882  29291.592077     -0.189732
PJ03 -34768.760434  20331.604894  -7728.413698     -2.267891
PR01   6724.194720 -24406.761340   3064.586306      8.888027
PR02  -2625.245065 -20019.808371 -15578.381486    518.870022
PR03 -10289.662837  -3839.991080 -22974.183359     56.928295
PR04 -11883.173800  14218.212205 -17492.859219    142.316040
PR05  -7121.928925  24369.833055  -2332.295318     93.153261
PR07  10549.753287   2947.767767  23080.079095     35.292634
PR08  11951.539418 -14333.592318  17462.909194    -65.221815
PR09  15573.540973  18930.755737   7210.890874     55.935115
PR11  13730.574034  -1189.719341 -21457.121953     38.584347
PR12  -1518.329138 -14902.303313 -20626.014154     18.521518
PR13 -14754.033188 -19001.161305  -8495.422805    -22.521509
PR14 -20106.292601 -11927.170986  10195.244069     25.633257
PR15 -13244.828468   1860.962857  21738.625335     96.000671
PR17 -21924.752698    222.898907  13066.724145    527.500271
PR18 -23846.659357   8326.892941  -3337.975653    117.408641
PR19 -14675.241535  11670.075202 -17300.906153   -189.598471
PR20   6617.425774   8841.009740 -22996.645052    -70.883848
PR21  22580.798624   -939.245506 -11813.030919   -302.588490
PR22  23738.274039  -8505.521922   4167.570824   -184.203026
PR24  -7645.968448  -8879.306555  22668.036166     94.542082
EOF
